{"type": "FeatureCollection", "features": [{"type": "Feature", "properties": {"name": "University Hill", "role": "core", "confidence": "City neighborhood layer, 2017; retained study-boundary selection, not a university landholding map.", "source_url": "https://services.arcgis.com/uDTUpUPbk8X8mXwl/arcgis/rest/services/Syracuse_Neighborhoods_2017/FeatureServer/0", "vintage": "2017"}, "geometry": {"type": "Polygon", "coordinates": [[[-76.1339040914966, 43.0515424084374], [-76.1325371841338, 43.0515451727046], [-76.1323668846087, 43.051006415950894], [-76.1324558853231, 43.04685342608651], [-76.1301580475373, 43.046894412817], [-76.1294530502726, 43.0469134233488], [-76.1293610278534, 43.045237914790405], [-76.1293583621633, 43.0452379861241], [-76.12874988241681, 43.0387041838487], [-76.1285282725931, 43.0362848119587], [-76.1301527929501, 43.0362074717566], [-76.129816892995, 43.0325479405624], [-76.1316229120137, 43.0331937468489], [-76.1324479844544, 43.0337925588015], [-76.1395928360087, 43.0334869547003], [-76.1429710758001, 43.03334230205989], [-76.1430591539295, 43.033577866924595], [-76.1431235012322, 43.03379796474109], [-76.1431535317127, 43.03394624767599], [-76.1431628619212, 43.034112628930885], [-76.1431658464369, 43.03428378749549], [-76.1431621173549, 43.0344547100853], [-76.1431613271261, 43.03449093010578], [-76.1431269562682, 43.0347209375545], [-76.1430807672608, 43.034969077464794], [-76.1430258650021, 43.0352261013042], [-76.142961843145, 43.0354834329939], [-76.1429350032575, 43.035584654217004], [-76.1428253823332, 43.03599806383121], [-76.142632930357, 43.036594451074805], [-76.1424252316096, 43.03726280497861], [-76.1423823536446, 43.0374360819852], [-76.1423503612852, 43.037565367785206], [-76.1423246375275, 43.03779506520541], [-76.1423114389386, 43.03803853007479], [-76.1423069585613, 43.0382724250933], [-76.142331755748, 43.03846596130231], [-76.1423622938037, 43.0386413416879], [-76.1424089167178, 43.03888846682149], [-76.1424564510494, 43.039171608318895], [-76.1425117584893, 43.039544640434315], [-76.1425300350475, 43.039702138561786], [-76.1425409186457, 43.039814677854686], [-76.1425669283349, 43.04003497105369], [-76.1425988304755, 43.04031393647061], [-76.1426771269863, 43.04110103349301], [-76.1427375595672, 43.041901780765805], [-76.1427561005398, 43.0425452819604], [-76.1427565922116, 43.04264188308229], [-76.1427613481329, 43.043576298822806], [-76.1427635670034, 43.0441483972472], [-76.1427747388388, 43.04471092665461], [-76.1427836291112, 43.045625001158086], [-76.1427970357413, 43.046300036264], [-76.1427905801833, 43.0469081138539], [-76.1427820517395, 43.0471196992849], [-76.1427767062363, 43.0472458951055], [-76.1427763216052, 43.047316782167385], [-76.1427759730178, 43.0473810261416], [-76.142783851411, 43.0476239798959], [-76.1427840748258, 43.0476242424703], [-76.142786117381, 43.047661280252996], [-76.1427977144727, 43.04787157026259], [-76.1428378975556, 43.04823562597021], [-76.1428408023712, 43.04850286565691], [-76.142955331111, 43.04890160989918], [-76.1429954776043, 43.04904138303641], [-76.1430289412823, 43.049157888941], [-76.1430981991777, 43.049399013252106], [-76.1431339617737, 43.0494532548435], [-76.1431918107607, 43.0495409949241], [-76.1432876523549, 43.04968635812129], [-76.1433955717423, 43.04985003882309], [-76.1435231770781, 43.05004357583531], [-76.1436014434849, 43.0501622805961], [-76.1437465673178, 43.050265483448094], [-76.1439260379271, 43.05039311081279], [-76.1440254236255, 43.050463786854195], [-76.14416856227712, 43.0505655764479], [-76.14426777447521, 43.0506361285031], [-76.1443944068016, 43.0507282059229], [-76.1446057075478, 43.05082434662589], [-76.1450681759981, 43.05103913038101], [-76.1451796821534, 43.051090916568405], [-76.1452644837797, 43.0511270353859], [-76.1454335982043, 43.0511724446301], [-76.14575714319, 43.0512593194431], [-76.1459020045017, 43.0512982156659], [-76.1462218590571, 43.051384097912], [-76.1466225434676, 43.05149168170409], [-76.1471734153948, 43.05156000116689], [-76.1471684018151, 43.051732818157], [-76.1467199146338, 43.0516561696186], [-76.1461967302535, 43.05160147733691], [-76.1459164915127, 43.05158117678309], [-76.14565862364, 43.05156323410059], [-76.1450906751466, 43.05156338708569], [-76.1445974762634, 43.0515799650725], [-76.14415493172672, 43.051619324351], [-76.1438353310161, 43.051656933707314], [-76.1432296998733, 43.0517356430899], [-76.1424430069773, 43.05173143796739], [-76.1421192202084, 43.05172970550189], [-76.1419495934743, 43.051725557842786], [-76.1389179785916, 43.0516513872664], [-76.1379316158375, 43.051636336904394], [-76.1369914836399, 43.0516259404654], [-76.1367537359721, 43.051614481101], [-76.1360811514718, 43.0515820600381], [-76.1349415535648, 43.05155615729829], [-76.1345897996698, 43.0515514967699], [-76.1339040914966, 43.0515424084374]]]}}, {"type": "Feature", "properties": {"name": "Outer Comstock", "role": "adjacent", "confidence": "City neighborhood layer, 2017; retained study-boundary selection, not a university landholding map.", "source_url": "https://services.arcgis.com/uDTUpUPbk8X8mXwl/arcgis/rest/services/Syracuse_Neighborhoods_2017/FeatureServer/0", "vintage": "2017"}, "geometry": {"type": "Polygon", "coordinates": [[[-76.1395928360087, 43.0334869547003], [-76.1324479844544, 43.0337925588015], [-76.1316229120137, 43.0331937468489], [-76.129816892995, 43.0325479405624], [-76.1295723965854, 43.02988052250989], [-76.1290166601932, 43.02378555015951], [-76.1239408244137, 43.0216782959289], [-76.1251346796356, 43.0215859389501], [-76.1242950238986, 43.0133658605234], [-76.1250196582278, 43.01335677241709], [-76.1253205017154, 43.013343381290696], [-76.1256208686321, 43.0133303194216], [-76.1253840948097, 43.01300448309669], [-76.1250342414457, 43.01251743357649], [-76.1244457002967, 43.0117130727414], [-76.1239195895088, 43.011301359410396], [-76.1237034280688, 43.011065382818195], [-76.123357846749, 43.01087106268659], [-76.1225893842436, 43.010346425887896], [-76.1226306539346, 43.01025135171891], [-76.1228454320434, 43.00993529672441], [-76.1238057914945, 43.008775868626095], [-76.1245940191792, 43.007734785290495], [-76.1248991585888, 43.007799866848906], [-76.1290990321037, 43.00869986155801], [-76.1321999385127, 43.008699864762505], [-76.1333999022814, 43.0092998595877], [-76.1358830482082, 43.0092023911702], [-76.136415785703, 43.0098483658169], [-76.1368890448697, 43.01048301387299], [-76.13727734286061, 43.01102682033271], [-76.1388274581661, 43.01345430719971], [-76.1390393454396, 43.013815900793205], [-76.1396725958739, 43.01528185859429], [-76.1399604951147, 43.01606257064399], [-76.1401171935987, 43.0165653020714], [-76.1401205385986, 43.01658243372299], [-76.14015871724531, 43.01671110911679], [-76.1401852577732, 43.01689523824519], [-76.1402255827278, 43.017099868038], [-76.1402613279789, 43.017303487839094], [-76.1406665028633, 43.019378501172305], [-76.1406978729383, 43.019598816314], [-76.140716517749, 43.01980124721349], [-76.1406995849686, 43.0199486300412], [-76.140698167776, 43.0199609652448], [-76.140675633372, 43.0201571033484], [-76.1406383602374, 43.02069338139211], [-76.1404947018099, 43.022374117926596], [-76.1404037796127, 43.0237079613758], [-76.1403383086416, 43.0244921049062], [-76.1403437529551, 43.0249376579036], [-76.1403555078311, 43.025383235292], [-76.140395830047, 43.02575655429919], [-76.1404554695927, 43.026206432699], [-76.1404637253618, 43.0262545525816], [-76.1405333136069, 43.0266601542556], [-76.1406109197021, 43.026951987980596], [-76.1406947066179, 43.02726202351289], [-76.1409335704832, 43.027980119390506], [-76.1415930825911, 43.029678334921506], [-76.1416395288422, 43.0297979283849], [-76.1416376545928, 43.0297979722774], [-76.1418455741436, 43.03033477208259], [-76.1419967651, 43.030732883562706], [-76.1422782648917, 43.031474106193194], [-76.1428125783435, 43.032918396097], [-76.1429710758001, 43.03334230205989], [-76.1395928360087, 43.0334869547003]]]}}, {"type": "Feature", "properties": {"name": "University Neighborhood", "role": "core", "confidence": "City neighborhood layer, 2017; retained study-boundary selection, not a university landholding map.", "source_url": "https://services.arcgis.com/uDTUpUPbk8X8mXwl/arcgis/rest/services/Syracuse_Neighborhoods_2017/FeatureServer/0", "vintage": "2017"}, "geometry": {"type": "Polygon", "coordinates": [[[-76.12874988241681, 43.0387041838487], [-76.128127111457, 43.03872800940348], [-76.1281098452014, 43.038539661597795], [-76.123713913981, 43.03873283993719], [-76.1235222731525, 43.03653558713199], [-76.122911546428, 43.036565994548994], [-76.1192948061101, 43.0367447604067], [-76.1188766690681, 43.03043911971861], [-76.1120355089024, 43.030658636635195], [-76.1118973836261, 43.02913694116], [-76.1113398709027, 43.0223762128587], [-76.1239408244137, 43.0216782959289], [-76.1290166601932, 43.02378555015951], [-76.1295723965854, 43.02988052250989], [-76.129816892995, 43.0325479405624], [-76.1301527929501, 43.0362074717566], [-76.1285282725931, 43.0362848119587], [-76.12874988241681, 43.0387041838487]]]}}, {"type": "Feature", "properties": {"name": "South Campus", "role": "adjacent", "confidence": "City neighborhood layer, 2017; retained study-boundary selection, not a university landholding map.", "source_url": "https://services.arcgis.com/uDTUpUPbk8X8mXwl/arcgis/rest/services/Syracuse_Neighborhoods_2017/FeatureServer/0", "vintage": "2017"}, "geometry": {"type": "Polygon", "coordinates": [[[-76.1110916588201, 43.019582571959496], [-76.1106038534717, 43.014091618276396], [-76.1242950238986, 43.0133658605234], [-76.1251716994232, 43.02166054517569], [-76.1239408244137, 43.0216782959289], [-76.122855830892, 43.0217593045081], [-76.1113398709027, 43.0223762128587], [-76.1110916588201, 43.019582571959496]]]}}, {"type": "Feature", "properties": {"name": "Westcott", "role": "core", "confidence": "City neighborhood layer, 2017; retained study-boundary selection, not a university landholding map.", "source_url": "https://services.arcgis.com/uDTUpUPbk8X8mXwl/arcgis/rest/services/Syracuse_Neighborhoods_2017/FeatureServer/0", "vintage": "2017"}, "geometry": {"type": "Polygon", "coordinates": [[[-76.1192948061101, 43.0367447604067], [-76.1235222731525, 43.03653558713199], [-76.1236741930535, 43.0382825595335], [-76.123713913981, 43.03873283993719], [-76.1238366075672, 43.0387296446364], [-76.1281098452014, 43.038539661597795], [-76.128127111457, 43.03872800940348], [-76.12874988241681, 43.0387041838487], [-76.1293608642146, 43.045234935244395], [-76.1294530502726, 43.0469134233488], [-76.1244209708293, 43.04699782456078], [-76.1238596743851, 43.04678739233851], [-76.1217645048879, 43.046012342930005], [-76.12108112182591, 43.045633326482395], [-76.1200292673089, 43.0454661412541], [-76.1184817402476, 43.0454741696184], [-76.1172417381592, 43.0454563354714], [-76.1148833809627, 43.04517874622749], [-76.113720600072, 43.045000549349396], [-76.11314611134182, 43.037046300029395], [-76.1128383491834, 43.0326604211027], [-76.112146673129, 43.03268773525381], [-76.1120355089024, 43.030658636635195], [-76.1188766690681, 43.03043911971861], [-76.1192948061101, 43.0367447604067]]]}}, {"type": "Feature", "geometry": {"type": "Polygon", "coordinates": [[[-76.0842817812895, 43.0586656898854], [-76.0840638698324, 43.0582366774388], [-76.0837103777812, 43.0570418382863], [-76.0835658530752, 43.0562189113748], [-76.0835110558658, 43.0554224169261], [-76.0828639864416, 43.0545413843918], [-76.0839205005949, 43.0542979281948], [-76.0861194160095, 43.0544597281823], [-76.087924111664, 43.0547194845156], [-76.0900969655236, 43.0545235130415], [-76.0900402914119, 43.053824649614], [-76.0899025773486, 43.0521263978236], [-76.0898337228835, 43.0512772719522], [-76.0897910781149, 43.0507513543066], [-76.0906597735083, 43.0507055425566], [-76.0931461713746, 43.048067024546], [-76.093515851869, 43.0476638446354], [-76.0944727746176, 43.0476877304791], [-76.0944742814704, 43.0476869366065], [-76.1126172694188, 43.0447807149589], [-76.113720600072, 43.0450005493494], [-76.1137333673096, 43.0450025059747], [-76.1137776486555, 43.045009292239], [-76.1139235049015, 43.0450316450646], [-76.1148017353165, 43.0451662317499], [-76.1148833809627, 43.0451787462275], [-76.115355945689, 43.0508324231854], [-76.115795558797, 43.052949036812], [-76.1159383494912, 43.0548885898501], [-76.1141702662008, 43.0552997814443], [-76.1126727968196, 43.0556632540411], [-76.1119763817648, 43.0558455611648], [-76.1111117845815, 43.0561523103473], [-76.1102055466642, 43.056472628316], [-76.1093106754918, 43.0567621368986], [-76.1084589375355, 43.0569591356224], [-76.1065667623719, 43.0573418307921], [-76.1047218546313, 43.0576977317603], [-76.1047011158489, 43.0577010914814], [-76.1044794112523, 43.0577370077781], [-76.1042029424211, 43.0577817952566], [-76.1018275294189, 43.0582503443262], [-76.101420658718, 43.0583484672638], [-76.0995940192545, 43.0586522423769], [-76.0994464785712, 43.0586832745193], [-76.0982080693588, 43.0589194633013], [-76.096977018737, 43.05914463908], [-76.0962533306828, 43.0592796676756], [-76.0956114265349, 43.0593704505704], [-76.0950438424439, 43.0594170245505], [-76.0939833007299, 43.0594988457303], [-76.093004497009, 43.0595309342191], [-76.0920251696858, 43.0595082089642], [-76.0913595344262, 43.0594620575054], [-76.0911741969971, 43.0594316252688], [-76.0900268460062, 43.0593380875188], [-76.0896855096345, 43.0593102578091], [-76.088100303339, 43.0591809990063], [-76.0868044315525, 43.0590028439343], [-76.0856313481205, 43.058832244094], [-76.0845991810215, 43.0586778053015], [-76.0842817812895, 43.0586656898854]]]}, "properties": {"name": "Salt Springs", "role": "surrounding", "source_url": "https://services.arcgis.com/uDTUpUPbk8X8mXwl/arcgis/rest/services/Syracuse_Neighborhoods_2017/FeatureServer/0", "vintage": "2017", "confidence": "City neighborhood layer, 2017; retained study-boundary selection, not a university landholding map."}}, {"type": "Feature", "geometry": {"type": "Polygon", "coordinates": [[[-76.1319718373603, 43.0515497054998], [-76.1325371841338, 43.0515451727046], [-76.1339040914966, 43.0515424084374], [-76.1345897996698, 43.0515514967699], [-76.1349415535648, 43.0515561572983], [-76.1360811514718, 43.0515820600381], [-76.1367537359721, 43.051614481101], [-76.1369914836399, 43.0516259404654], [-76.1379316158375, 43.0516363369044], [-76.1389179785916, 43.0516513872664], [-76.1419495934743, 43.0517255578428], [-76.1421192202084, 43.0517297055019], [-76.1424430069773, 43.0517314379674], [-76.1432296998733, 43.0517356430899], [-76.1438353310161, 43.0516569337073], [-76.1441549317267, 43.051619324351], [-76.1445974762634, 43.0515799650725], [-76.1450906751466, 43.0515633870857], [-76.14565862364, 43.0515632341006], [-76.1459164915127, 43.0515811767831], [-76.1461967302535, 43.0516014773369], [-76.1467199146338, 43.0516561696186], [-76.1470589517343, 43.0517141128104], [-76.1471684018151, 43.051732818157], [-76.1476243472829, 43.0517984940951], [-76.148042922283, 43.0518586959231], [-76.14914000472, 43.0521474782249], [-76.1487150305246, 43.0523483984069], [-76.1463322575738, 43.0535297985978], [-76.1449096032542, 43.0542240239765], [-76.1407341956998, 43.056275964928], [-76.1319718373603, 43.0515497054998]]]}, "properties": {"name": "Hawley-Green", "role": "surrounding", "source_url": "https://services.arcgis.com/uDTUpUPbk8X8mXwl/arcgis/rest/services/Syracuse_Neighborhoods_2017/FeatureServer/0", "vintage": "2017", "confidence": "City neighborhood layer, 2017; retained study-boundary selection, not a university landholding map."}}, {"type": "Feature", "geometry": {"type": "Polygon", "coordinates": [[[-76.1407341956998, 43.056275964928], [-76.1449096032542, 43.0542240239765], [-76.1463322575738, 43.0535297985978], [-76.1487150305246, 43.0523483984069], [-76.14914000472, 43.0521474782249], [-76.1492558706893, 43.0522029093955], [-76.1496913342141, 43.052411236553], [-76.1500430550524, 43.0526007089775], [-76.1502892997745, 43.0527333618197], [-76.1504057842057, 43.0527961119825], [-76.1506899384772, 43.0529491821473], [-76.1510053513656, 43.0531166753331], [-76.1512137071415, 43.0532270515591], [-76.151337444319, 43.0532885263153], [-76.1516472158919, 43.0534424229207], [-76.151784644356, 43.0535089613958], [-76.1521860415982, 43.0540178420973], [-76.1526613661214, 43.0545622245997], [-76.152863649982, 43.0547944964643], [-76.1530720930766, 43.0550490847489], [-76.1532966883764, 43.0553349444204], [-76.1535306240092, 43.0556565085207], [-76.1536555515628, 43.0559166126501], [-76.1537767586323, 43.0561403469099], [-76.1538399707545, 43.056297325495], [-76.1541280315468, 43.0568392838389], [-76.1541544546398, 43.0569066067815], [-76.1541672074723, 43.0569335756073], [-76.1473191911203, 43.059813593427], [-76.1407341956998, 43.056275964928]]]}, "properties": {"name": "Prospect Hill", "role": "surrounding", "source_url": "https://services.arcgis.com/uDTUpUPbk8X8mXwl/arcgis/rest/services/Syracuse_Neighborhoods_2017/FeatureServer/0", "vintage": "2017", "confidence": "City neighborhood layer, 2017; retained study-boundary selection, not a university landholding map."}}, {"type": "Feature", "geometry": {"type": "Polygon", "coordinates": [[[-76.1230463643131, 43.064948896202], [-76.1222222837765, 43.0533538548913], [-76.1279614673752, 43.0516723430977], [-76.1319718373603, 43.0515497054998], [-76.1407341956998, 43.056275964928], [-76.1389869173777, 43.0571347560439], [-76.1230463643131, 43.064948896202]]]}, "properties": {"name": "Lincoln Hill", "role": "surrounding", "source_url": "https://services.arcgis.com/uDTUpUPbk8X8mXwl/arcgis/rest/services/Syracuse_Neighborhoods_2017/FeatureServer/0", "vintage": "2017", "confidence": "City neighborhood layer, 2017; retained study-boundary selection, not a university landholding map."}}, {"type": "Feature", "geometry": {"type": "Polygon", "coordinates": [[[-76.1585193742653, 43.0546084186977], [-76.1581238259593, 43.0545342914741], [-76.1579060872117, 43.0545079928437], [-76.1569798436341, 43.0543918997832], [-76.1551063112485, 43.0542719791042], [-76.1531576558827, 43.0540177277591], [-76.1524143838455, 43.0537917784502], [-76.1516472158919, 43.0534424229207], [-76.1510053513656, 43.0531166753331], [-76.1504057842057, 43.0527961119825], [-76.1496913342141, 43.052411236553], [-76.14914000472, 43.0521474782249], [-76.148042922283, 43.0518586959231], [-76.1471684018151, 43.051732818157], [-76.1471734153948, 43.0515600011669], [-76.1466225434676, 43.0514916817041], [-76.1452478179033, 43.0511225603818], [-76.1443945366731, 43.0507262716307], [-76.1436014434849, 43.0501622805961], [-76.1430981991777, 43.0493990132521], [-76.1428408023712, 43.0485028656569], [-76.14277581804, 43.0471551369911], [-76.1427670194021, 43.0443161589856], [-76.1427588168745, 43.0426508968315], [-76.1512244215609, 43.042692504215], [-76.1519294333118, 43.0427109867466], [-76.1521200673538, 43.042669886317], [-76.1527763205362, 43.0425283962055], [-76.1531463403296, 43.0424395642261], [-76.1536030032577, 43.042345004835], [-76.1539002345995, 43.0423145463565], [-76.1540127080216, 43.0423150678744], [-76.1542323060095, 43.0423205628068], [-76.1545272230453, 43.0424075449852], [-76.1544427326703, 43.0425146092047], [-76.1543402804617, 43.0426445479752], [-76.154252015843, 43.0427799884692], [-76.1542324679288, 43.0430037347611], [-76.154260118371, 43.0432280443644], [-76.1542764822646, 43.0434529051163], [-76.1542906616116, 43.0437524205994], [-76.1543613153864, 43.0438932120052], [-76.1545265636073, 43.0440828962144], [-76.1547164558812, 43.0442919595388], [-76.1548675018113, 43.0444575506352], [-76.1550478420904, 43.0446396257177], [-76.1552013681446, 43.0447387788974], [-76.1553640876083, 43.0448298705826], [-76.1557054572656, 43.0449951655663], [-76.1559782258306, 43.0450986875049], [-76.1563468067168, 43.0452294021559], [-76.156623184672, 43.0453278125877], [-76.1568022486741, 43.0454002571375], [-76.1570511695524, 43.0455323857024], [-76.1572608158869, 43.0456961702823], [-76.1573757219688, 43.0458206586756], [-76.1574617916295, 43.0459561964509], [-76.1574913453908, 43.0461047140214], [-76.157498088251, 43.0462547230689], [-76.1574963226437, 43.0464799556258], [-76.157484512115, 43.0467801399798], [-76.1574344398687, 43.0469244733145], [-76.1572788529919, 43.0470211987511], [-76.1572027303756, 43.0470716196909], [-76.1571374729231, 43.0472095456467], [-76.1571365874756, 43.047359848578], [-76.1571681129657, 43.0476592826032], [-76.1572671418806, 43.047916490513], [-76.1573124248778, 43.0480180779972], [-76.1573970964307, 43.0481547590295], [-76.1574637808247, 43.0482966834959], [-76.1575074705347, 43.0484434104541], [-76.1575259599009, 43.0485927980782], [-76.1575372325182, 43.0486615485019], [-76.1580890211428, 43.0486640386247], [-76.1584694377127, 43.0486645816592], [-76.1586169098538, 43.0489330804296], [-76.1590395441068, 43.0494250746163], [-76.1591890312734, 43.049690314959], [-76.1592008112553, 43.0498094377948], [-76.1592191453647, 43.0499948371142], [-76.1592011066875, 43.0501988657151], [-76.159182280576, 43.0504117991674], [-76.1591393197262, 43.0506586339191], [-76.1591012015483, 43.0508393646254], [-76.1590400179069, 43.0511294539122], [-76.1589667261521, 43.0514769475257], [-76.1589061677548, 43.0517458737351], [-76.1588558332489, 43.0519420504846], [-76.1587998952587, 43.0521600650678], [-76.1587439568663, 43.0523780796135], [-76.1586916658919, 43.052581877245], [-76.1586470838286, 43.052755629237], [-76.158599699858, 43.0529403001303], [-76.1585382814574, 43.0531796660931], [-76.1584858215304, 43.0533638025916], [-76.1584470675877, 43.0534998297855], [-76.1584060234126, 43.0536625434009], [-76.1583818358389, 43.0538132291171], [-76.1583651281288, 43.0539173157225], [-76.1583497785237, 43.0540141199142], [-76.1583480890686, 43.0540976048566], [-76.1583639355075, 43.0541649227975], [-76.1583823654977, 43.0542432158483], [-76.1584055603187, 43.0543258155706], [-76.158434957409, 43.0544305020445], [-76.1584857714296, 43.054537597616], [-76.1585193742653, 43.0546084186977]]]}, "properties": {"name": "Downtown", "role": "surrounding", "source_url": "https://services.arcgis.com/uDTUpUPbk8X8mXwl/arcgis/rest/services/Syracuse_Neighborhoods_2017/FeatureServer/0", "vintage": "2017", "confidence": "City neighborhood layer, 2017; retained study-boundary selection, not a university landholding map."}}, {"type": "Feature", "geometry": {"type": "Polygon", "coordinates": [[[-76.1137776486555, 43.045009292239], [-76.1126172694188, 43.0447807149589], [-76.0944742814704, 43.0476869366065], [-76.093515851869, 43.0476638446354], [-76.0931461713746, 43.048067024546], [-76.0892716738336, 43.0479168342315], [-76.087868331498, 43.0473420637796], [-76.0848096432047, 43.0453963955131], [-76.0831097983035, 43.0444767284195], [-76.0823995887329, 43.0445071832994], [-76.0821299405009, 43.0411601512019], [-76.0798876943668, 43.0400281760223], [-76.0798994733159, 43.0398667951145], [-76.0772577827942, 43.0390731990589], [-76.0760925401391, 43.0414086686709], [-76.0749752983538, 43.0414529734517], [-76.0746283804872, 43.0364696789603], [-76.0760835216388, 43.0368344612581], [-76.0779373243466, 43.0376863286032], [-76.0787267233907, 43.0364334906582], [-76.0826604147208, 43.0362370752577], [-76.0841668659672, 43.0371742977258], [-76.0841824075255, 43.0374085356175], [-76.0937000080741, 43.0370091453916], [-76.0933673333065, 43.0334020989407], [-76.1082925027183, 43.0327059314789], [-76.1079026446848, 43.0294036173998], [-76.1119470829504, 43.029209403481], [-76.1120355089024, 43.0306586366352], [-76.112146673129, 43.0326877352538], [-76.1128383491834, 43.0326604211027], [-76.1131461113418, 43.0370463000294], [-76.1137776486555, 43.045009292239]]]}, "properties": {"name": "Meadowbrook", "role": "surrounding", "source_url": "https://services.arcgis.com/uDTUpUPbk8X8mXwl/arcgis/rest/services/Syracuse_Neighborhoods_2017/FeatureServer/0", "vintage": "2017", "confidence": "City neighborhood layer, 2017; retained study-boundary selection, not a university landholding map."}}, {"type": "Feature", "geometry": {"type": "Polygon", "coordinates": [[[-76.1325371841338, 43.0515451727046], [-76.1279614673752, 43.0516723430977], [-76.1222222837765, 43.0533538548913], [-76.1219129215991, 43.0534381024993], [-76.1207940113405, 43.0537211114774], [-76.1196804043222, 43.0539936889464], [-76.1159383494912, 43.0548885898501], [-76.1158674848349, 43.0539260362819], [-76.115795558797, 43.052949036812], [-76.115355945689, 43.0508324231854], [-76.1148833809627, 43.0451787462275], [-76.1166516831795, 43.0453868881377], [-76.1179942500267, 43.0454671599661], [-76.1195265497814, 43.045468751581], [-76.1200362819043, 43.0454654163506], [-76.1210811218259, 43.0456333264824], [-76.1221598568558, 43.0461585967693], [-76.1244209708293, 43.0469978245608], [-76.1294530502726, 43.0469134233488], [-76.1324558853231, 43.0468534260865], [-76.1323668846087, 43.0510064159509], [-76.1325371841338, 43.0515451727046]]]}, "properties": {"name": "Near Eastside", "role": "surrounding", "source_url": "https://services.arcgis.com/uDTUpUPbk8X8mXwl/arcgis/rest/services/Syracuse_Neighborhoods_2017/FeatureServer/0", "vintage": "2017", "confidence": "City neighborhood layer, 2017; retained study-boundary selection, not a university landholding map."}}, {"type": "Feature", "geometry": {"type": "Polygon", "coordinates": [[[-76.1531463403296, 43.0424395642261], [-76.1519294333118, 43.0427109867466], [-76.1427588168745, 43.0426508968315], [-76.1425409186457, 43.0398146778547], [-76.1423622938037, 43.0386413416879], [-76.1423503612852, 43.0375653677852], [-76.1429350032575, 43.035584654217], [-76.1431621173549, 43.0344547100853], [-76.1430591539295, 43.0335778669246], [-76.1428125783435, 43.032918396097], [-76.1418455741436, 43.0303347720826], [-76.1411569585447, 43.0285553449632], [-76.1406109197021, 43.0269519879806], [-76.1404742571185, 43.0263159382619], [-76.1421525818681, 43.0259966768185], [-76.143687641647, 43.0258266521031], [-76.1452975820404, 43.0256446880889], [-76.1456345657474, 43.0254776975762], [-76.1484806932121, 43.02476766028], [-76.1551378810592, 43.023181027195], [-76.155148142975, 43.0244096474913], [-76.1574797442391, 43.0268204873301], [-76.1579937441079, 43.0271527073624], [-76.1586510608792, 43.0272996640044], [-76.1582623179915, 43.0283843668782], [-76.158131255955, 43.0285764242189], [-76.1570931835203, 43.0293326795361], [-76.1546639680303, 43.0310176788837], [-76.1533991466022, 43.0318925960535], [-76.1510213923547, 43.0363176033624], [-76.1518023199023, 43.0363226242431], [-76.1513873773782, 43.0372006245663], [-76.152308336324, 43.0403725758281], [-76.1531463403296, 43.0424395642261]]]}, "properties": {"name": "Southside", "role": "surrounding", "source_url": "https://services.arcgis.com/uDTUpUPbk8X8mXwl/arcgis/rest/services/Syracuse_Neighborhoods_2017/FeatureServer/0", "vintage": "2017", "confidence": "City neighborhood layer, 2017; retained study-boundary selection, not a university landholding map."}}]}