{"type": "FeatureCollection", "features": [{"type": "Feature", "geometry": {"type": "Polygon", "coordinates": [[[-76.1395415, 43.0377078], [-76.1419734, 43.0428995], [-76.1419677, 43.0432543], [-76.1408528, 43.0432448], [-76.1386574, 43.0424301], [-76.1384082, 43.0422186], [-76.1380762, 43.0416941], [-76.1380779, 43.0412738], [-76.1380785, 43.0411418], [-76.1383287, 43.0389241], [-76.1383482, 43.0388237], [-76.1384152, 43.0386345], [-76.1388121, 43.037785], [-76.1392002, 43.0377166], [-76.1395415, 43.0377078]]]}, "properties": {"id": "medical-area", "name": "Medical district", "description": "Orientation envelope around the mapped medical facilities; not an official district or ownership boundary.", "sourceIds": ["upstate", "nappi", "crouse-hospital", "va"]}}, {"type": "Feature", "geometry": {"type": "Polygon", "coordinates": [[[-76.1357377, 43.0355189], [-76.1370068, 43.0355247], [-76.1375014, 43.0358469], [-76.1375003, 43.036623], [-76.1342635, 43.040329], [-76.1337398, 43.040326], [-76.1332655, 43.0403205], [-76.1322288, 43.0401631], [-76.1303785, 43.0387396], [-76.130336, 43.0379997], [-76.1303254, 43.0372905], [-76.1308791, 43.0370444], [-76.1357377, 43.0355189]]]}, "properties": {"id": "academic-area", "name": "Main Campus academic core", "description": "Orientation envelope joining named campus facilities; not the complete university estate or a municipal neighborhood.", "sourceIds": ["schine", "bird", "dome", "languages", "lyman", "cst"]}}, {"type": "Feature", "geometry": {"type": "Polygon", "coordinates": [[[-76.1386914, 43.0337474], [-76.1386813, 43.0343633], [-76.1370922, 43.0353306], [-76.1367971, 43.0353619], [-76.1352311, 43.0353322], [-76.1337221, 43.0349256], [-76.1337146, 43.0344553], [-76.1338347, 43.0342904], [-76.1357281, 43.0339031], [-76.1368002, 43.0338248], [-76.138214, 43.0337513], [-76.1386914, 43.0337474]]]}, "properties": {"id": "esf-area", "name": "ESF campus", "description": "Orientation envelope around mapped ESF facilities; not a surveyed campus boundary.", "sourceIds": ["esf-marshall", "esf-illick", "esf-bray", "esf-baker", "esf-jahn", "esf-moon", "esf-walters", "esf-gateway"]}}, {"type": "Feature", "geometry": {"type": "Polygon", "coordinates": [[[-76.1367956891133, 43.0413939550391], [-76.1372702072407, 43.041397949764], [-76.1373058914092, 43.0417203755028], [-76.137305254295, 43.0417505539175], [-76.1372589356912, 43.0419312688324], [-76.135685505407, 43.0425772718755], [-76.1355235830079, 43.0425760739883], [-76.1353234431725, 43.0423857065803], [-76.1350991067055, 43.0419718728406], [-76.1351015808479, 43.0417825576525], [-76.135103406958, 43.0417029955122], [-76.1367956891133, 43.0413939550391]]]}, "properties": {"id": "marshall-area", "name": "Marshall / Crouse shops", "description": "Orientation envelope connecting the commercial sites discussed here; not an adopted business district boundary.", "sourceIds": ["milton", "dellas", "153-marshall", "159-163-marshall", "737-south-crouse"]}}, {"type": "Feature", "geometry": {"type": "Polygon", "coordinates": [[[-76.1323401, 43.0406139], [-76.1328068, 43.0406195], [-76.1327287, 43.044097], [-76.1322619, 43.0440914], [-76.1323401, 43.0406139]]]}, "properties": {"id": "walnut-area", "name": "Walnut Park campus edge", "description": "Mapped municipal park, a separate place within the University Hill neighborhood.", "sourceIds": ["walnut"]}}, {"type": "Feature", "geometry": {"type": "Polygon", "coordinates": [[[-76.1454253, 43.0394288], [-76.1454854, 43.0394344], [-76.1495971, 43.0406145], [-76.1495938, 43.0415417], [-76.1455786, 43.0426917], [-76.1441045, 43.0426805], [-76.1430571, 43.0426394], [-76.1428604, 43.042631], [-76.1427518, 43.0425918], [-76.1403261, 43.0415658], [-76.1402545, 43.0415312], [-76.1401983, 43.041465], [-76.1401932, 43.0414033], [-76.1409009, 43.0396445], [-76.1409622, 43.0396099], [-76.1410478, 43.0396052], [-76.1441582, 43.0394792], [-76.1454253, 43.0394288]]]}, "properties": {"id": "east-adams-area", "name": "East Adams housing focus", "description": "Orientation envelope around selected housing and parks; NOT the full East Adams target-neighborhood boundary.", "sourceIds": ["east-adams-housing", "roesler", "wilson"]}}]}